CCSDS_OMM_VERS = 2.0
CREATION_DATE  = 
ORIGINATOR     = 

OBJECT_NAME    = SL-16 R/B
OBJECT_ID      = 1998-045B
CENTER_NAME    = EARTH
REF_FRAME      = TEME
TIME_SYSTEM    = UTC
MEAN_ELEMENT_THEORY = SGP/SGP4

EPOCH          = 2026-03-23T21:52:47.397216
MEAN_MOTION    = 14.16195397
ECCENTRICITY   = .00077251
INCLINATION    = 71.0115
RA_OF_ASC_NODE = 151.6679
ARG_OF_PERICENTER = 345.5537
MEAN_ANOMALY   = 14.5364

EPHEMERIS_TYPE = 0
CLASSIFICATION_TYPE = U
NORAD_CAT_ID   = 25407
ELEMENT_SET_NO = 999
REV_AT_EPOCH   = 42911
BSTAR          = -.48319617E-4
MEAN_MOTION_DOT = -.143E-5
MEAN_MOTION_DDOT = 0

CCSDS_OMM_VERS = 2.0
CREATION_DATE  = 
ORIGINATOR     = 

OBJECT_NAME    = ISS (ZARYA)
OBJECT_ID      = 1998-067A
CENTER_NAME    = EARTH
REF_FRAME      = TEME
TIME_SYSTEM    = UTC
MEAN_ELEMENT_THEORY = SGP/SGP4

EPOCH          = 2026-03-23T20:10:56.220672
MEAN_MOTION    = 15.48504160
ECCENTRICITY   = .00062315
INCLINATION    = 51.6344
RA_OF_ASC_NODE = 2.4037
ARG_OF_PERICENTER = 225.1303
MEAN_ANOMALY   = 134.9180

EPHEMERIS_TYPE = 0
CLASSIFICATION_TYPE = U
NORAD_CAT_ID   = 25544
ELEMENT_SET_NO = 999
REV_AT_EPOCH   = 55852
BSTAR          = .2901609E-3
MEAN_MOTION_DOT = .15301E-3
MEAN_MOTION_DDOT = 0

CCSDS_OMM_VERS = 2.0
CREATION_DATE  = 
ORIGINATOR     = 

OBJECT_NAME    = CZ-4B R/B
OBJECT_ID      = 1999-025C
CENTER_NAME    = EARTH
REF_FRAME      = TEME
TIME_SYSTEM    = UTC
MEAN_ELEMENT_THEORY = SGP/SGP4

EPOCH          = 2026-03-23T20:49:24.439008
MEAN_MOTION    = 14.18267986
ECCENTRICITY   = .00361323
INCLINATION    = 98.6598
RA_OF_ASC_NODE = 126.8116
ARG_OF_PERICENTER = 305.0740
MEAN_ANOMALY   = 228.2303

EPHEMERIS_TYPE = 0
CLASSIFICATION_TYPE = U
NORAD_CAT_ID   = 25732
ELEMENT_SET_NO = 999
REV_AT_EPOCH   = 39017
BSTAR          = .33912203E-4
MEAN_MOTION_DOT = .27E-6
MEAN_MOTION_DDOT = 0

CCSDS_OMM_VERS = 2.0
CREATION_DATE  = 
ORIGINATOR     = 

OBJECT_NAME    = OKEAN-O
OBJECT_ID      = 1999-039A
CENTER_NAME    = EARTH
REF_FRAME      = TEME
TIME_SYSTEM    = UTC
MEAN_ELEMENT_THEORY = SGP/SGP4

EPOCH          = 2026-03-23T21:56:15.382752
MEAN_MOTION    = 14.80357300
ECCENTRICITY   = .00009283
INCLINATION    = 97.9412
RA_OF_ASC_NODE = 142.6589
ARG_OF_PERICENTER = 83.0043
MEAN_ANOMALY   = 277.1274

EPHEMERIS_TYPE = 0
CLASSIFICATION_TYPE = U
NORAD_CAT_ID   = 25860
ELEMENT_SET_NO = 999
REV_AT_EPOCH   = 43649
BSTAR          = .97053554E-4
MEAN_MOTION_DOT = .688E-5
MEAN_MOTION_DDOT = 0

CCSDS_OMM_VERS = 2.0
CREATION_DATE  = 
ORIGINATOR     = 

OBJECT_NAME    = SL-16 R/B
OBJECT_ID      = 1999-039B
CENTER_NAME    = EARTH
REF_FRAME      = TEME
TIME_SYSTEM    = UTC
MEAN_ELEMENT_THEORY = SGP/SGP4

EPOCH          = 2026-03-23T21:08:00.233664
MEAN_MOTION    = 14.81750149
ECCENTRICITY   = .00141781
INCLINATION    = 97.9935
RA_OF_ASC_NODE = 141.9540
ARG_OF_PERICENTER = 206.6690
MEAN_ANOMALY   = 153.3795

EPHEMERIS_TYPE = 0
CLASSIFICATION_TYPE = U
NORAD_CAT_ID   = 25861
ELEMENT_SET_NO = 999
REV_AT_EPOCH   = 43896
BSTAR          = .83566957E-4
MEAN_MOTION_DOT = .606E-5
MEAN_MOTION_DDOT = 0

CCSDS_OMM_VERS = 2.0
CREATION_DATE  = 
ORIGINATOR     = 

OBJECT_NAME    = DELTA 2 R/B
OBJECT_ID      = 1999-041E
CENTER_NAME    = EARTH
REF_FRAME      = TEME
TIME_SYSTEM    = UTC
MEAN_ELEMENT_THEORY = SGP/SGP4

EPOCH          = 2026-03-23T17:47:58.967808
MEAN_MOTION    = 14.11869343
ECCENTRICITY   = .05026176
INCLINATION    = 51.7605
RA_OF_ASC_NODE = 245.1476
ARG_OF_PERICENTER = 29.8785
MEAN_ANOMALY   = 332.9857

EPHEMERIS_TYPE = 0
CLASSIFICATION_TYPE = U
NORAD_CAT_ID   = 25876
ELEMENT_SET_NO = 999
REV_AT_EPOCH   = 36501
BSTAR          = .11787964E-3
MEAN_MOTION_DOT = .486E-5
MEAN_MOTION_DDOT = 0

CCSDS_OMM_VERS = 2.0
CREATION_DATE  = 
ORIGINATOR     = 

OBJECT_NAME    = HELIOS 1B
OBJECT_ID      = 1999-064A
CENTER_NAME    = EARTH
REF_FRAME      = TEME
TIME_SYSTEM    = UTC
MEAN_ELEMENT_THEORY = SGP/SGP4

EPOCH          = 2026-03-23T23:20:20.375520
MEAN_MOTION    = 14.87751623
ECCENTRICITY   = .00020405
INCLINATION    = 98.1680
RA_OF_ASC_NODE = 345.6345
ARG_OF_PERICENTER = 55.4000
MEAN_ANOMALY   = 304.7408

EPHEMERIS_TYPE = 0
CLASSIFICATION_TYPE = U
NORAD_CAT_ID   = 25977
ELEMENT_SET_NO = 999
REV_AT_EPOCH   = 68738
BSTAR          = .19783216E-3
MEAN_MOTION_DOT = .1746E-4
MEAN_MOTION_DDOT = 0

CCSDS_OMM_VERS = 2.0
CREATION_DATE  = 
ORIGINATOR     = 

OBJECT_NAME    = TERRA
OBJECT_ID      = 1999-068A
CENTER_NAME    = EARTH
REF_FRAME      = TEME
TIME_SYSTEM    = UTC
MEAN_ELEMENT_THEORY = SGP/SGP4

EPOCH          = 2026-03-23T23:00:46.218528
MEAN_MOTION    = 14.61029315
ECCENTRICITY   = .00034323
INCLINATION    = 97.9563
RA_OF_ASC_NODE = 135.8464
ARG_OF_PERICENTER = 121.2771
MEAN_ANOMALY   = 292.0065

EPHEMERIS_TYPE = 0
CLASSIFICATION_TYPE = U
NORAD_CAT_ID   = 25994
ELEMENT_SET_NO = 999
REV_AT_EPOCH   = 39716
BSTAR          = .10554815E-3
MEAN_MOTION_DOT = .474E-5
MEAN_MOTION_DDOT = 0

CCSDS_OMM_VERS = 2.0
CREATION_DATE  = 
ORIGINATOR     = 

OBJECT_NAME    = SL-16 R/B
OBJECT_ID      = 2000-006B
CENTER_NAME    = EARTH
REF_FRAME      = TEME
TIME_SYSTEM    = UTC
MEAN_ELEMENT_THEORY = SGP/SGP4

EPOCH          = 2026-03-23T22:20:20.887584
MEAN_MOTION    = 14.15824295
ECCENTRICITY   = .0016025
INCLINATION    = 71.0009
RA_OF_ASC_NODE = 67.8899
ARG_OF_PERICENTER = 167.6934
MEAN_ANOMALY   = 192.4584

EPHEMERIS_TYPE = 0
CLASSIFICATION_TYPE = U
NORAD_CAT_ID   = 26070
ELEMENT_SET_NO = 999
REV_AT_EPOCH   = 35057
BSTAR          = .10084863E-3
MEAN_MOTION_DOT = .151E-5
MEAN_MOTION_DDOT = 0

CCSDS_OMM_VERS = 2.0
CREATION_DATE  = 
ORIGINATOR     = 

OBJECT_NAME    = TITAN 4B R/B
OBJECT_ID      = 2000-047B
CENTER_NAME    = EARTH
REF_FRAME      = TEME
TIME_SYSTEM    = UTC
MEAN_ELEMENT_THEORY = SGP/SGP4

EPOCH          = 2026-03-23T22:35:33.031392
MEAN_MOTION    = 15.09695636
ECCENTRICITY   = .00396319
INCLINATION    = 67.9915
RA_OF_ASC_NODE = 0.4328
ARG_OF_PERICENTER = 18.7222
MEAN_ANOMALY   = 341.5374

EPHEMERIS_TYPE = 0
CLASSIFICATION_TYPE = U
NORAD_CAT_ID   = 26474
ELEMENT_SET_NO = 999
REV_AT_EPOCH   = 39506
BSTAR          = .27406248E-3
MEAN_MOTION_DOT = .4373E-4
MEAN_MOTION_DDOT = 0

CCSDS_OMM_VERS = 2.0
CREATION_DATE  = 
ORIGINATOR     = 

OBJECT_NAME    = ENVISAT
OBJECT_ID      = 2002-009A
CENTER_NAME    = EARTH
REF_FRAME      = TEME
TIME_SYSTEM    = UTC
MEAN_ELEMENT_THEORY = SGP/SGP4

EPOCH          = 2026-03-23T20:35:52.976256
MEAN_MOTION    = 14.39041625
ECCENTRICITY   = .00012485
INCLINATION    = 98.3752
RA_OF_ASC_NODE = 36.1202
ARG_OF_PERICENTER = 81.6280
MEAN_ANOMALY   = 299.9826

EPHEMERIS_TYPE = 0
CLASSIFICATION_TYPE = U
NORAD_CAT_ID   = 27386
ELEMENT_SET_NO = 999
REV_AT_EPOCH   = 26121
BSTAR          = .52648874E-4
MEAN_MOTION_DOT = .12E-5
MEAN_MOTION_DDOT = 0

CCSDS_OMM_VERS = 2.0
CREATION_DATE  = 
ORIGINATOR     = 

OBJECT_NAME    = IDEFIX & ARIANE 42P R/B
OBJECT_ID      = 2002-021B
CENTER_NAME    = EARTH
REF_FRAME      = TEME
TIME_SYSTEM    = UTC
MEAN_ELEMENT_THEORY = SGP/SGP4

EPOCH          = 2026-03-23T19:54:20.873664
MEAN_MOTION    = 14.31035195
ECCENTRICITY   = .001238
INCLINATION    = 98.5886
RA_OF_ASC_NODE = 21.2680
ARG_OF_PERICENTER = 141.3027
MEAN_ANOMALY   = 218.9045

EPHEMERIS_TYPE = 0
CLASSIFICATION_TYPE = U
NORAD_CAT_ID   = 27422
ELEMENT_SET_NO = 999
REV_AT_EPOCH   = 24604
BSTAR          = .11688105E-3
MEAN_MOTION_DOT = .264E-5
MEAN_MOTION_DDOT = 0

