SL-16 R/B               
1 25407U 98045B   26082.91165969 -.00000143  00000+0 -48320-4 0  9998
2 25407  71.0115 151.6679 0007725 345.5537  14.5364 14.16195397429119
ISS (ZARYA)             
1 25544U 98067A   26082.84092848  .00015301  00000+0  29016-3 0  9991
2 25544  51.6344   2.4037 0006231 225.1303 134.9180 15.48504160558524
CZ-4B R/B               
1 25732U 99025C   26082.86764397  .00000027  00000+0  33912-4 0  9992
2 25732  98.6598 126.8116 0036132 305.0740 228.2303 14.18267986390177
OKEAN-O                 
1 25860U 99039A   26082.91406693  .00000688  00000+0  97054-4 0  9997
2 25860  97.9412 142.6589 0000928  83.0043 277.1274 14.80357300436494
SL-16 R/B               
1 25861U 99039B   26082.88055826  .00000606  00000+0  83567-4 0  9996
2 25861  97.9935 141.9540 0014178 206.6690 153.3795 14.81750149438963
DELTA 2 R/B             
1 25876U 99041E   26082.74165472  .00000486  00000+0  11788-3 0  9990
2 25876  51.7605 245.1476 0502617  29.8785 332.9857 14.11869343365015
HELIOS 1B               
1 25977U 99064A   26082.97245805  .00001746  00000+0  19783-3 0  9994
2 25977  98.1680 345.6345 0002040  55.4000 304.7408 14.87751623687386
TERRA                   
1 25994U 99068A   26082.95886827  .00000474  00000+0  10555-3 0  9995
2 25994  97.9563 135.8464 0003432 121.2771 292.0065 14.61029315397166
SL-16 R/B               
1 26070U 00006B   26082.93079731  .00000151  00000+0  10085-3 0  9991
2 26070  71.0009  67.8899 0016025 167.6934 192.4584 14.15824295350575
TITAN 4B R/B            
1 26474U 00047B   26082.94135453  .00004373  00000+0  27406-3 0  9994
2 26474  67.9915   0.4328 0039631  18.7222 341.5374 15.09695636395063
ENVISAT                 
1 27386U 02009A   26082.85825204  .00000120  00000+0  52649-4 0  9991
2 27386  98.3752  36.1202 0001248  81.6280 299.9826 14.39041625261218
IDEFIX & ARIANE 42P R/B 
1 27422U 02021B   26082.82940826  .00000264  00000+0  11688-3 0  9997
2 27422  98.5886  21.2680 0012380 141.3027 218.9045 14.31035195246041
